AMC-3                   
1 24936U 97050A   24199.55323133 -.00000251  00000+0  00000+0 0  9992
2 24936   6.4199  71.8610 0002990  41.7641 309.3966  1.00271962 98439
ASTRA 2A                
1 25462U 98050A   24199.79375375  .00000079  00000+0  00000+0 0  9996
2 25462   5.3216  77.1252 0003438  33.5943 168.3199  1.00273548 39321
NSS-11                  
1 26554U 00059A   24199.86994140  .00000042  00000+0  00000+0 0  9996
2 26554   0.3099  88.6909 0003145  29.7134 306.9484  1.00273107 87161
AMC-6                   
1 26580U 00067A   24199.68327355  .00000121  00000+0  00000+0 0  9990
2 26580   0.0161  47.4780 0003274  91.3444 264.1435  1.00272672 86873
AMC-11                  
1 28252U 04017A   24199.90345319 -.00000033  00000+0  00000+0 0  9995
2 28252   0.0369 308.6294 0001330 161.4539  40.2786  1.00271346 73862
AMC-15                  
1 28446U 04041A   24199.68997429 -.00000071  00000+0  00000+0 0  9999
2 28446   0.0492 290.8953 0002466 178.5932 329.8457  1.00270692 72307
NSS-10                  
1 28526U 05003A   24200.28459876 -.00000241  00000+0  00000+0 0  9994
2 28526   4.6915  78.8420 0003058  34.6791 248.0485  1.00270250 71315
ASTRA 1KR               
1 29055U 06012A   24199.49996014  .00000137  00000+0  00000+0 0  9996
2 29055   0.0614 275.3054 0002813 243.8853 335.7881  1.00269731 66733
ASTRA 1L                
1 31306U 07016A   24199.57159310  .00000137  00000+0  00000+0 0  9992
2 31306   0.0753 306.4850 0000986 139.3417  75.0087  1.00271003 63029
ASTRA 4A                
1 32299U 07057A   24200.35577515  .00000048  00000+0  00000+0 0  9990
2 32299   0.0102   9.1225 0003182  94.8298 325.5784  1.00271499 60950
AMC-21                  
1 33275U 08038B   24199.68605828  .00000052  00000+0  00000+0 0  9992
2 33275   1.1326  89.5745 0002758  27.7500 300.7383  1.00271591 58470
ASTRA 1M                
1 33436U 08057A   24199.57159310  .00000137  00000+0  00000+0 0  9994
2 33436   0.0157  34.1114 0005823  94.6403  32.1095  1.00275289 38726
NSS-9                   
1 33749U 09008A   24200.37230079  .00000088  00000+0  00000+0 0  9996
2 33749   0.0216 334.9940 0002295 135.1840 143.5899  1.00272892 56550
SES-7 (PROTOSTAR 2)     
1 34941U 09027A   24200.11090934 -.00000329  00000+0  00000+0 0  9997
2 34941   0.0119   0.1879 0001325 183.5269 260.8855  1.00271424 55605
NSS-12                  
1 36032U 09058A   24199.79340566  .00000088  00000+0  00000+0 0  9995
2 36032   0.0640 278.5354 0003690 196.7735 163.4237  1.00273711 53901
SES-1                   
1 36516U 10016A   24199.90545471 -.00000098  00000+0  00000+0 0  9995
2 36516   0.0406 295.5117 0002798 172.5354  53.1173  1.00272176 52122
ASTRA 3B                
1 36581U 10021A   24199.50091740  .00000154  00000+0  00000+0 0  9996
2 36581   0.0179  20.7933 0004198  95.0158  23.8100  1.00273825 51868
SES-3                   
1 37748U 11035A   24199.37033618 -.00000084  00000+0  00000+0 0  9996
2 37748   0.0372 309.8051 0003051 161.7363 214.4632  1.00273506 47574
ASTRA 1N                
1 37775U 11041A   24199.35697142  .00000138  00000+0  00000+0 0  9998
2 37775   0.0510   0.6239 0004758  86.0621 356.7066  1.00275281 37519
SES-2                   
1 37809U 11049A   24199.90823944 -.00000179  00000+0  00000+0 0  9992
2 37809   0.0339 303.4472 0002703 171.3462  61.3815  1.00271503 46950
QUETZSAT 1              
1 37826U 11054A   24200.33950191 -.00000226  00000+0  00000+0 0  9995
2 37826   0.0494 284.9013 0002855 188.7361 228.2159  1.00272793 47096
SES-4                   
1 38087U 12007A   24199.63497601 -.00000151  00000+0  00000+0 0  9993
2 38087   0.0249  49.0611 0002320  69.8549  23.5921  1.00270123 45212
SES-5                   
1 38652U 12036A   24200.35586218  .00000049  00000+0  00000+0 0  9993
2 38652   0.0723 290.5521 0002266 178.1149 321.0666  1.00271625 44061
ASTRA 2F                
1 38778U 12051A   24200.28891604  .00000166  00000+0  00000+0 0  9999
2 38778   0.0882 254.0536 0002481 275.1754 259.5445  1.00270533 43286
SES-6                   
1 39172U 13026A   24200.41897851 -.00000246  00000+0  00000+0 0  9996
2 39172   0.0206 348.5687 0001973 124.2582 294.2117  1.00271763 40712
O3B FM5                 
1 39188U 13031A   24199.26100825 -.00000013  00000+0  00000+0 0  9999
2 39188   0.0641  10.6608 0002610 100.6343 248.7331  5.00115106202022
O3B FM4                 
1 39189U 13031B   24199.51638180 -.00000013  00000+0  00000+0 0  9998
2 39189   0.0492 346.5963 0002630 124.5480 248.8840  5.00115035202051
O3B FM2                 
1 39190U 13031C   24199.80820071 -.00000013  00000+0  00000+0 0  9994
2 39190   0.0486 340.5343 0002562 133.9840 245.5086  5.00115587202115
O3B PFM                 
1 39191U 13031D   24199.43382751 -.00000013  00000+0  00000+0 0  9992
2 39191   0.0571   5.2718 0002622 110.5486 244.2069  5.00116195201668
ASTRA 2E                
1 39285U 13056A   24199.85968081  .00000167  00000+0  00000+0 0  9994
2 39285   0.0628 335.1802 0002523 138.2308 160.6858  1.00269562 39416
SES-8                   
1 39460U 13071A   24199.87290824 -.00000253  00000+0  00000+0 0  9998
2 39460   0.0602 257.8935 0002965 205.5756 241.9455  1.00271153 37418
ASTRA 5B                
1 39617U 14011B   24198.64227816  .00000155  00000+0  00000+0 0  9992
2 39617   0.0534 323.8389 0002278 162.1547  63.6859  1.00274034 37649
O3B FM3                 
1 40079U 14038A   24199.48842647 -.00000013  00000+0  00000+0 0  9997
2 40079   0.0527 354.3581 0004449 148.6461 217.0267  5.00114667178041
O3B FM7                 
1 40080U 14038B   24199.63478204 -.00000013  00000+0  00000+0 0  9990
2 40080   0.0545 349.8189 0001818  80.2616 289.9393  5.00116270182883
O3B FM6                 
1 40081U 14038C   24199.46199483 -.00000013  00000+0  00000+0 0  9991
2 40081   0.0517 353.9216 0002614 122.6895 243.4160  5.00115411182822
O3B FM8                 
1 40082U 14038D   24199.51549409 -.00000013  00000+0  00000+0 0  9995
2 40082   0.0523 352.9547 0002783 121.2627 245.8119  5.00115485182945
O3B FM10                
1 40348U 14083A   24199.54193750 -.00000013  00000+0  00000+0 0  9997
2 40348   0.0522   3.9422 0002629 112.0979 243.9872  5.00115616174897
O3B FM11                
1 40349U 14083B   24199.55514584 -.00000013  00000+0  00000+0 0  9991
2 40349   0.0566   2.0208 0001997 110.3459 247.6546  5.00115627174913
O3B FM12                
1 40350U 14083C   24199.58244294 -.00000013  00000+0  00000+0 0  9994
2 40350   0.0557   1.5332 0002470 115.3408 243.1515  5.00115669174927
O3B FM9                 
1 40351U 14083D   24199.60910353 -.00000013  00000+0  00000+0 0  9994
2 40351   0.0578   1.9320 0002578 112.8587 245.2364  5.00116051175079
ASTRA 2G                
1 40364U 14089A   24199.14401941  .00000167  00000+0  00000+0 0  9990
2 40364   0.0543 325.7481 0004792 112.4480 297.3070  1.00268034 34945
SES-9                   
1 41380U 16013A   24200.30484118 -.00000329  00000+0  00000+0 0  9997
2 41380   0.0476 280.3441 0002544 172.7888  61.4971  1.00270024 30741
SES-10                  
1 42432U 17017A   24198.76728237 -.00000254  00000+0  00000+0 0  9997
2 42432   0.0167  50.6613 0002661  55.6244  38.1163  1.00270928 26721
SES-15                  
1 42709U 17026A   24200.49753646  .00000075  00000+0  00000+0 0  9990
2 42709   0.0190  38.0987 0000546  65.9146 242.7440  1.00268128 27184
SES-11 (ECHOSTAR 105)   
1 42967U 17063A   24200.51085590 -.00000074  00000+0  00000+0 0  9996
2 42967   0.0099  37.7811 0002499  83.0455 254.9333  1.00271362 24809
SES-14                  
1 43175U 18012B   24197.69798608 -.00000260  00000+0  00000+0 0  9995
2 43175   0.0131 350.6020 0001206 116.2212  30.9805  1.00272392 24015
O3B FM15                
1 43231U 18024A   24197.47666017 -.00000014  00000+0  00000+0 0  9992
2 43231   0.0490   6.0952 0002699 112.2332 241.6989  5.00114986115921
O3B FM16                
1 43232U 18024B   24197.52939299 -.00000014  00000+0  00000+0 0  9994
2 43232   0.0461   9.7125 0002642 106.6471 243.6675  5.00115376115840
O3B FM14                
1 43233U 18024C   24199.36875368 -.00000013  00000+0  00000+0 0  9994
2 43233   0.0448   9.0246 0002934 104.8610 246.1453  5.00114836116182
O3B FM13                
1 43234U 18024D   24197.62315203 -.00000014  00000+0  00000+0 0  9990
2 43234   0.0621 357.3879 0002542 131.4731 231.1617  5.00115337115971
SES-12                  
1 43488U 18049A   24200.44530690 -.00000253  00000+0  00000+0 0  9997
2 43488   0.0123   3.1176 0000573 206.1900 342.7264  1.00268078 22404
O3B FM20                
1 44112U 19020A   24200.19443170 -.00000013  00000+0  00000+0 0  9994
2 44112   0.0517   3.2700 0002361 120.4072 236.3454  5.00115994 96698
O3B FM19                
1 44113U 19020B   24195.42435933 -.00000017  00000+0  00000+0 0  9996
2 44113   0.0776 358.9887 0002458  86.0369 275.0016  5.00115333 96236
O3B FM17                
1 44114U 19020C   24197.90270178 -.00000014  00000+0  00000+0 0  9997
2 44114   0.0339 351.8550 0002790 133.0644 235.1069  5.00115286 96433
O3B FM18                
1 44115U 19020D   24199.44826451 -.00000013  00000+0  00000+0 0  9999
2 44115   0.0521   3.5597 0002800 112.8451 243.6242  5.00117177 96632
SES-17                  
1 49332U 21095A   24200.33868684 -.00000257  00000+0  00000+0 0  9995
2 49332   0.0146  35.3930 0001408  83.5296 232.5399  1.00273717 10836
SES-22                  
1 52933U 22071A   24199.59275941  .00000122  00000+0  00000+0 0  9994
2 52933   0.0523 266.8888 0000439 231.1515 232.2588  1.00273313   497
SES-20                  
1 53960U 22123A   24197.90157201 -.00000083  00000+0  00000+0 0  9991
2 53960   0.0141  53.3833 0002150  38.6824  63.6301  1.00272029  6519
SES-21                  
1 53961U 22123B   24199.60079906  .00000086  00000+0  00000+0 0  9998
2 53961   0.0327  34.1772 0000854  86.9036 260.1836  1.00268244   206
O3B MPOWER F1           
1 54755U 22174A   24199.35453479 -.00000013  00000+0  00000+0 0  9990
2 54755   0.0598 350.3514 0006816 122.8937 299.5471  5.00114091 30342
O3B MPOWER F2           
1 54756U 22174B   24199.25857288 -.00000013  00000+0  00000+0 0  9996
2 54756   0.0574 347.2303 0005514 132.2183 240.6067  5.00114356 30421
SES-18                  
1 55970U 23038A   24199.90510663 -.00000084  00000+0  00000+0 0  9998
2 55970   0.0577 255.8251 0001179 258.7342   4.3714  1.00271644  5104
SES-19                  
1 55971U 23038B   24200.15257624  .00000104  00000+0  00000+0 0  9996
2 55971   0.0118  33.6941 0001987  84.9069  97.8602  1.00273107  5071
O3B MPOWER F4           
1 56367U 23059A   24199.35888490 -.00000013  00000+0  00000+0 0  9999
2 56367   0.0631   6.1568 0007053  99.0712 254.8503  5.00113824 23598
O3B MPOWER F3           
1 56368U 23059B   24199.42579046 -.00000013  00000+0  00000+0 0  9992
2 56368   0.0634   7.5238 0005733 114.1805 238.3519  5.00115480 19720
O3B MPOWER F5           
1 58346U 23175A   24198.89263828 -.00000013  00000+0  00000+0 0  9997
2 58346   0.0419  12.6669 0006856 113.2560 234.1411  5.00112285 14404
O3B MPOWER F6           
1 58347U 23175B   24198.79255513 -.00000013  00000+0  00000+0 0  9999
2 58347   0.0493   8.1199 0004934 121.7482 230.1756  5.00113972 13307
ASTRA 1P                
1 60086U 24115A   24198.19192245 -.00000122  00000+0  00000+0 0  9994
2 60086  20.6734  59.6007 7522887 185.3616 155.1333  1.17190283   193
